IRIDIUM 26              
1 24903U 97043A   25085.53718308  .00001073  00000+0  35523-3 0  9997
2 24903  86.3984 145.3412 0002296  88.5568 271.5893 14.37052523444871
IRIDIUM 22              
1 24907U 97043E   25085.53841866  .00000956  00000+0  32319-3 0  9996
2 24907  86.3996 148.8049 0002223  94.2215 265.9235 14.35876815444913
DUMMY MASS 1            
1 24925U 97048A   25085.57529585  .00001308  00000+0  14328-3 0  9998
2 24925  86.3413 173.5030 0009015  82.6662 277.5587 14.86890011492850
DUMMY MASS 2            
1 24926U 97048B   25085.52370790  .00001305  00000+0  14380-3 0  9991
2 24926  86.3416 175.1167 0009833  91.2589 268.9762 14.86642767492622
IRIDIUM 33              
1 24946U 97051C   25085.55196197  .00000859  00000+0  29609-3 0  9990
2 24946  86.3948 177.7825 0007500   4.4501 355.6761 14.34827156440897
IRIDIUM 36              
1 24967U 97056C   25085.59302875  .00001448  00000+0  47731-3 0  9995
2 24967  86.4019 207.6502 0001862  92.2043 267.9368 14.37507508440354
